{
  "norad_id": 43255,
  "name": "IRIDIUM 148",
  "history": [
    {
      "epoch": "2026-04-12T23:28:18.793920Z",
      "apogee_km": 779.2240114814649,
      "perigee_km": 776.1331285041633,
      "latitude_deg": -1.047265249952818e-05,
      "longitude_deg": 124.49091090590912,
      "height_km": 780.5817008270808,
      "semi_major_axis_km": 7155.815569992814,
      "eccentricity": 0.00021597,
      "inclination_deg": 86.3954,
      "raan_deg": 317.7446,
      "arg_perigee_deg": 84.6458,
      "mean_anomaly_deg": 275.4984,
      "mean_motion_rev_day": 14.34214318
    },
    {
      "epoch": "2026-04-14T20:40:55.134336Z",
      "apogee_km": 779.2088535134562,
      "perigee_km": 776.1447340469595,
      "latitude_deg": 9.260543557028028e-07,
      "longitude_deg": 163.69478249015089,
      "height_km": 780.5825051563056,
      "semi_major_axis_km": 7155.813793780208,
      "eccentricity": 0.0002141,
      "inclination_deg": 86.395,
      "raan_deg": 316.9566,
      "arg_perigee_deg": 84.6948,
      "mean_anomaly_deg": 275.4492,
      "mean_motion_rev_day": 14.34214852
    },
    {
      "epoch": "2026-04-15T11:45:07.229664Z",
      "apogee_km": 779.2063975350839,
      "perigee_km": 776.1457131750485,
      "latitude_deg": 2.6352804128359055e-05,
      "longitude_deg": -63.23711592319345,
      "height_km": 780.5832918725637,
      "semi_major_axis_km": 7155.813055355066,
      "eccentricity": 0.00021386,
      "inclination_deg": 86.3949,
      "raan_deg": 316.694,
      "arg_perigee_deg": 84.7462,
      "mean_anomaly_deg": 275.3978,
      "mean_motion_rev_day": 14.34215074
    },
    {
      "epoch": "2026-04-16T19:33:59.415264Z",
      "apogee_km": 779.196752705896,
      "perigee_km": 776.1526704038006,
      "latitude_deg": -4.875437239077547e-05,
      "longitude_deg": 177.68426700932613,
      "height_km": 780.5875775744211,
      "semi_major_axis_km": 7155.8117115548475,
      "eccentricity": 0.0002127,
      "inclination_deg": 86.3947,
      "raan_deg": 316.1394,
      "arg_perigee_deg": 84.9291,
      "mean_anomaly_deg": 275.2147,
      "mean_motion_rev_day": 14.34215478
    },
    {
      "epoch": "2026-04-17T20:40:59.559744Z",
      "apogee_km": 779.198576850823,
      "perigee_km": 776.1496288561184,
      "latitude_deg": 5.749964337222781e-06,
      "longitude_deg": 159.46436327664472,
      "height_km": 780.5916139547372,
      "semi_major_axis_km": 7155.81110285347,
      "eccentricity": 0.00021304,
      "inclination_deg": 86.3945,
      "raan_deg": 315.7016,
      "arg_perigee_deg": 85.1131,
      "mean_anomaly_deg": 275.0308,
      "mean_motion_rev_day": 14.34215661
    },
    {
      "epoch": "2026-04-18T20:07:31.685088Z",
      "apogee_km": 779.1923829876641,
      "perigee_km": 776.1554568332549,
      "latitude_deg": 1.7802575472302083e-06,
      "longitude_deg": 166.45916829364356,
      "height_km": 780.5918413710302,
      "semi_major_axis_km": 7155.810919910459,
      "eccentricity": 0.0002122,
      "inclination_deg": 86.3944,
      "raan_deg": 315.293,
      "arg_perigee_deg": 85.1087,
      "mean_anomaly_deg": 275.0351,
      "mean_motion_rev_day": 14.34215716
    },
    {
      "epoch": "2026-04-19T19:34:03.831168Z",
      "apogee_km": 779.1892642000475,
      "perigee_km": 776.1594936622087,
      "latitude_deg": 5.355031035750815e-05,
      "longitude_deg": 173.45388898816074,
      "height_km": 780.596646378145,
      "semi_major_axis_km": 7155.811378931128,
      "eccentricity": 0.0002117,
      "inclination_deg": 86.3943,
      "raan_deg": 314.8844,
      "arg_perigee_deg": 85.2621,
      "mean_anomaly_deg": 274.8817,
      "mean_motion_rev_day": 14.34215578
    },
    {
      "epoch": "2026-04-20T07:17:19.908096Z",
      "apogee_km": 779.1779927479656,
      "perigee_km": 776.1718361627027,
      "latitude_deg": -6.145176778547144e-05,
      "longitude_deg": -3.0488761302498686,
      "height_km": 780.6003889532254,
      "semi_major_axis_km": 7155.811914455334,
      "eccentricity": 0.00021005,
      "inclination_deg": 86.3942,
      "raan_deg": 314.68,
      "arg_perigee_deg": 85.3457,
      "mean_anomaly_deg": 274.7978,
      "mean_motion_rev_day": 14.34215417
    }
  ]
}